ORION-1
1 25544U 98067A   20029.54791435  .00000728  00000-0  20595-4 0  9993
2 25544  51.6432  23.4361 0007417  68.0431  61.7660 15.49147121210878
ORION-2
1 25338U 98030A   20029.44912813  .00000086  00000-0  67033-4 0  9995
2 25338  98.7425  29.1813 0011096  79.3920 280.8507 14.25904906130653
ORION-3
1 25994U 99068A   20029.52155234  .00000042  00000-0  23856-4 0  9994
2 25994  98.2080 110.5951 0001399  91.2833 268.8525 14.57110262072156
AEGIS-4
1 27424U 02022A   20029.18167824  .00000071  00000-0  27257-4 0  9992
2 27424  98.2121 108.3815 0001518  83.2911 276.8467 14.57108617940712
HELIO-5
1 39084U 13008A   20029.54238029  .00000030  00000-0  20543-4 0  9999
2 39084  98.2055 100.6557 0001195  94.5221 265.6102 14.57108984371577
